NORAD_CAT_ID,OBJECT_NAME,OBJECT_TYPE,EPOCH,MEAN_MOTION,ECCENTRICITY,INCLINATION,RA_OF_ASC_NODE,ARG_OF_PERICENTER,MEAN_ANOMALY,BSTAR,MEAN_MOTION_DOT,MEAN_MOTION_DDOT,TLE_LINE0,TLE_LINE1,TLE_LINE2,SEMIMAJOR_AXIS,PERIOD,APOGEE,PERIGEE,DECAYED
55741.0,STARLINK-5592,PAYLOAD,2023-10-22 15:37:15,14.98331064,0.0002534,70.0003,275.7254,278.9304,81.1568,-6.9556e-05,-9.23e-06,0.0,0 STARLINK-5592,1 55741U 23028A   23295.65087520 -.00000923  00000-0 -69556-4 0  9992,2 55741  70.0003 275.7254 0002534 278.9304  81.1568 14.98331064 36055,6950.19,96.107,573.816,570.293,0.0
55741.0,STARLINK-5592,PAYLOAD,2023-10-23 02:50:11,14.98385793,0.0002129,69.9991,274.5468,250.1778,109.9152,-0.0010153,-0.00012203,0.0,0 STARLINK-5592,1 55741U 23028A   23296.11818389 -.00012203  00000-0 -10153-2 0  9990,2 55741  69.9991 274.5468 0002129 250.1778 109.9152 14.98385793 35920,6950.02,96.103,573.365,570.406,0.0
55741.0,STARLINK-5592,PAYLOAD,2023-10-23 09:14:43,14.98370088,0.000196,70.0001,273.8743,243.381,116.7149,-0.00085252,-0.0001026,0.0,0 STARLINK-5592,1 55741U 23028A   23296.38522406 -.00010260  00000-0 -85252-3 0  9995,2 55741  70.0001 273.8743 0001960 243.3810 116.7149 14.98370088 35963,6950.069,96.104,573.296,570.572,0.0
55741.0,STARLINK-5592,PAYLOAD,2023-10-24 02:52:12,14.98325264,0.0002964,69.9989,272.0228,271.4167,88.6652,0.00011335,1.26e-05,0.0,0 STARLINK-5592,1 55741U 23028A   23297.11959448  .00001260  00000-0  11335-3 0  9996,2 55741  69.9989 272.0228 0002964 271.4167  88.6652 14.98325264 36071,6950.208,96.107,574.133,570.012,0.0
55741.0,STARLINK-5592,PAYLOAD,2023-10-24 07:40:38,14.98313244,0.0002697,70.0,271.5173,273.1185,86.9665,-0.00010545,-1.35e-05,0.0,0 STARLINK-5592,1 55741U 23028A   23297.31988733 -.00001350  00000-0 -10545-3 0  9991,2 55741  70.0000 271.5173 0002697 273.1185  86.9665 14.98313244 36107,6950.245,96.108,573.984,570.235,0.0
55741.0,STARLINK-5592,PAYLOAD,2023-10-25 07:42:33,14.98391635,0.0002719,69.9998,268.9925,272.8996,87.1852,0.00081803,9.697e-05,0.0,0 STARLINK-5592,1 55741U 23028A   23298.32121930  .00009697  00000-0  81803-3 0  9996,2 55741  69.9998 268.9925 0002719 272.8996  87.1852 14.98391635 36253,6950.002,96.103,573.757,569.978,0.0
55741.0,STARLINK-5592,PAYLOAD,2023-10-26 02:56:15,14.98318812,0.0002397,69.9997,266.9724,254.8421,105.2473,0.00011093,1.23e-05,0.0,0 STARLINK-5592,1 55741U 23028A   23299.12239749  .00001230  00000-0  11093-3 0  9992,2 55741  69.9997 266.9724 0002397 254.8421 105.2473 14.98318812 36372,6950.227,96.108,573.758,570.427,0.0
55741.0,STARLINK-5592,PAYLOAD,2023-10-26 07:44:38,14.98330869,0.0002761,69.9991,266.4672,267.4548,92.6295,0.00010505,1.161e-05,0.0,0 STARLINK-5592,1 55741U 23028A   23299.32267056  .00001161  00000-0  10505-3 0  9996,2 55741  69.9991 266.4672 0002761 267.4548  92.6295 14.98330869 36409,6950.19,96.107,573.974,570.136,0.0
55741.0,STARLINK-5592,PAYLOAD,2023-10-26 15:45:19,14.98310614,0.000266,69.9997,265.6258,286.3663,73.7204,0.00042314,4.957e-05,0.0,0 STARLINK-5592,1 55741U 23028A   23299.65647943  .00004957  00000-0  42314-3 0  9998,2 55741  69.9997 265.6258 0002660 286.3663  73.7204 14.98310614 36453,6950.253,96.108,573.967,570.269,0.0
55741.0,STARLINK-5592,PAYLOAD,2023-10-27 04:34:22,14.98339942,0.0002794,69.9988,264.2785,262.5201,97.5641,5.8507e-05,6.05e-06,0.0,0 STARLINK-5592,1 55741U 23028A   23300.19054338  .00000605  00000-0  58507-4 0  9998,2 55741  69.9988 264.2785 0002794 262.5201  97.5641 14.98339942 36538,6950.162,96.106,573.969,570.085,0.0
55741.0,STARLINK-5592,PAYLOAD,2023-10-27 07:46:38,14.98336103,0.000271,69.9992,263.9431,260.2647,99.8206,0.00018794,2.151e-05,0.0,0 STARLINK-5592,1 55741U 23028A   23300.32406220  .00002151  00000-0  18794-3 0  9995,2 55741  69.9992 263.9431 0002710 260.2647  99.8206 14.98336103 36756,6950.174,96.107,573.923,570.156,0.0
55741.0,STARLINK-5592,PAYLOAD,2023-10-27 22:11:52,14.98324827,0.0003084,69.9988,262.4274,266.8269,93.2538,5.8383e-06,-2.3e-07,0.0,0 STARLINK-5592,1 55741U 23028A   23300.92491255 -.00000023  00000-0  58383-5 0  9990,2 55741  69.9988 262.4274 0003084 266.8269  93.2538 14.98324827 36843,6950.209,96.107,574.217,569.93,0.0
55741.0,STARLINK-5592,PAYLOAD,2023-10-27 23:48:00,14.98326141,0.0002954,69.9988,262.2591,269.0261,91.056,2.0951e-05,1.57e-06,0.0,0 STARLINK-5592,1 55741U 23028A   23300.99167191  .00000157  00000-0  20951-4 0  9992,2 55741  69.9988 262.2591 0002954 269.0261  91.0560 14.98326141 36656,6950.205,96.107,574.123,570.017,0.0
55741.0,STARLINK-5592,PAYLOAD,2023-10-28 14:13:12,14.98342808,0.0002898,69.9992,260.7449,268.7002,91.3825,-0.00025584,-3.145e-05,0.0,0 STARLINK-5592,1 55741U 23028A   23301.59250737 -.00003145  00000-0 -25584-3 0  9996,2 55741  69.9992 260.7449 0002898 268.7002  91.3825 14.98342808 36949,6950.153,96.106,574.032,570.004,0.0
55741.0,STARLINK-5592,PAYLOAD,2023-10-28 22:13:50,14.98359841,0.0002913,69.9995,259.9027,247.6186,112.4665,0.00074707,8.839e-05,0.0,0 STARLINK-5592,1 55741U 23028A   23301.92627688  .00008839  00000-0  74707-3 0  9990,2 55741  69.9995 259.9027 0002913 247.6186 112.4665 14.98359841 36998,6950.101,96.105,573.99,569.941,0.0
55741.0,STARLINK-5592,PAYLOAD,2023-10-29 03:02:20,14.9827474,0.0002252,70.0012,259.399,235.4487,124.646,-5.1583e-05,-7.07e-06,0.0,0 STARLINK-5592,1 55741U 23028A   23302.12662839 -.00000707  00000-0 -51583-4 0  9996,2 55741  70.0012 259.3990 0002252 235.4487 124.6460 14.98274740 36823,6950.364,96.111,573.794,570.664,0.0
55741.0,STARLINK-5592,PAYLOAD,2023-10-29 06:14:33,14.98337654,0.0002452,70.0009,259.0627,267.9855,92.1023,8.123e-05,8.77e-06,0.0,0 STARLINK-5592,1 55741U 23028A   23302.26010519  .00000877  00000-0  81230-4 0  9991,2 55741  70.0009 259.0627 0002452 267.9855  92.1023 14.98337654 36844,6950.169,96.107,573.738,570.33,0.0
55741.0,STARLINK-5592,PAYLOAD,2023-10-29 14:15:14,14.98322097,0.0001967,70.0021,258.2202,273.5724,86.521,0.00018121,2.069e-05,0.0,0 STARLINK-5592,1 55741U 23028A   23302.59391418  .00002069  00000-0  18121-3 0  9990,2 55741  70.0021 258.2202 0001967 273.5724  86.5210 14.98322097 37094,6950.217,96.108,573.449,570.715,0.0
55741.0,STARLINK-5592,PAYLOAD,2023-10-29 22:15:54,14.9830183,0.0002827,70.0015,257.3794,259.6909,100.3931,0.00046339,5.436e-05,0.0,0 STARLINK-5592,1 55741U 23028A   23302.92771469  .00005436  00000-0  46339-3 0  9998,2 55741  70.0015 257.3794 0002827 259.6909 100.3931 14.98301830 37142,6950.28,96.109,574.11,570.18,0.0
55741.0,STARLINK-5592,PAYLOAD,2023-10-30 14:17:14,14.98364475,0.0002625,70.0013,255.6937,278.5365,81.5497,-0.00065944,-7.959e-05,0.0,0 STARLINK-5592,1 55741U 23028A   23303.59530150 -.00007959  00000-0 -65944-3 0  9999,2 55741  70.0013 255.6937 0002625 278.5365  81.5497 14.98364475 37042,6950.086,96.105,573.776,570.127,0.0
55741.0,STARLINK-5592,PAYLOAD,2023-10-30 22:17:55,14.98331552,0.000279,70.0013,254.8532,272.955,87.129,-8.9921e-05,-1.166e-05,0.0,0 STARLINK-5592,1 55741U 23028A   23303.92911382 -.00001166  00000-0 -89921-4 0  9992,2 55741  70.0013 254.8532 0002790 272.9550  87.1290 14.98331552 37291,6950.188,96.107,573.992,570.114,0.0
55741.0,STARLINK-5592,PAYLOAD,2023-10-31 04:42:29,14.982808,0.0002508,70.0011,254.1791,260.9559,99.1316,0.00065328,7.7e-05,0.0,0 STARLINK-5592,1 55741U 23028A   23304.19617048  .00007700  00000-0  65328-3 0  9996,2 55741  70.0011 254.1791 0002508 260.9559  99.1316 14.98280800 37136,6950.345,96.11,573.953,570.467,0.0
55741.0,STARLINK-5592,PAYLOAD,2023-10-31 06:18:36,14.98290163,0.000261,70.0009,254.0109,261.4046,98.6818,0.00070037,8.265e-05,0.0,0 STARLINK-5592,1 55741U 23028A   23304.26292497  .00008265  00000-0  70037-3 0  9991,2 55741  70.0009 254.0109 0002610 261.4046  98.6818 14.98290163 37141,6950.316,96.11,573.995,570.367,0.0
55741.0,STARLINK-5592,PAYLOAD,2023-10-31 14:19:16,14.98331102,0.0002716,70.0,253.1699,270.3718,89.713,-6.7812e-05,-9.02e-06,0.0,0 STARLINK-5592,1 55741U 23028A   23304.59671403 -.00000902  00000-0 -67812-4 0  9995,2 55741  70.0000 253.1699 0002716 270.3718  89.7130 14.98331102 37392,6950.189,96.107,573.942,570.167,0.0
55741.0,STARLINK-5592,PAYLOAD,2023-10-31 22:19:56,14.98327193,0.0002917,69.9998,252.3293,268.6111,91.4714,9.699e-05,1.064e-05,0.0,0 STARLINK-5592,1 55741U 23028A   23304.93051306  .00001064  00000-0  96990-4 0  9994,2 55741  69.9998 252.3293 0002917 268.6111  91.4714 14.98327193 37445,6950.202,96.107,574.094,570.039,0.0
55741.0,STARLINK-5592,PAYLOAD,2023-11-01 14:21:17,14.98330057,0.0002143,70.0017,250.6447,273.8551,86.2363,9.7553e-05,1.071e-05,0.0,0 STARLINK-5592,1 55741U 23028A   23305.59811397  .00001071  00000-0  97553-4 0  9995,2 55741  70.0017 250.6447 0002143 273.8551  86.2363 14.98330057 37545,6950.193,96.107,573.547,570.568,0.0
55741.0,STARLINK-5592,PAYLOAD,2023-11-01 20:45:48,14.98330017,0.0002853,70.0001,249.9712,270.4027,89.6805,0.00015352,1.739e-05,0.0,0 STARLINK-5592,1 55741U 23028A   23305.86514995  .00001739  00000-0  15352-3 0  9996,2 55741  70.0001 249.9712 0002853 270.4027  89.6805 14.98330017 37389,6950.193,96.107,574.041,570.075,0.0
55741.0,STARLINK-5592,PAYLOAD,2023-11-01 22:21:57,14.9832932,0.000294,69.9996,249.8027,268.74,91.3422,0.00014287,1.612e-05,0.0,0 STARLINK-5592,1 55741U 23028A   23305.93191035  .00001612  00000-0  14287-3 0  9996,2 55741  69.9996 249.8027 0002940 268.7400  91.3422 14.98329320 37592,6950.195,96.107,574.103,570.017,0.0
55741.0,STARLINK-5592,PAYLOAD,2023-11-02 06:22:36,14.98339939,0.0002973,69.9995,248.9615,269.8747,90.2071,0.00019235,2.203e-05,0.0,0 STARLINK-5592,1 55741U 23028A   23306.26570264  .00002203  00000-0  19235-3 0  9993,2 55741  69.9995 248.9615 0002973 269.8747  90.2071 14.98339939 37445,6950.162,96.106,574.093,569.961,0.0
55741.0,STARLINK-5592,PAYLOAD,2023-11-02 20:47:49,14.98335857,0.0002635,70.0011,247.4473,273.0416,87.0442,-2.4374e-05,-3.84e-06,0.0,0 STARLINK-5592,1 55741U 23028A   23306.86655054 -.00000384  00000-0 -24374-4 0  9991,2 55741  70.0011 247.4473 0002635 273.0416  87.0442 14.98335857 37539,6950.175,96.107,573.871,570.208,0.0
